{"type":"FeatureCollection","features":[{"type":"Feature","properties":{"STOPNAME":"Waitemata Train Station","PARENTSTATION":"133-08da14b5","MODE":"Train","platforms":[{"id":"9001-c9315521","code":"9001","name":"Waitemata Train Station 1"},{"id":"9002-ffdd37b7","code":"9002","name":"Waitemata Train Station 2"},{"id":"9003-1b6fbb46","code":"9003","name":"Waitemata Train Station 3"},{"id":"9004-91807f00","code":"9004","name":"Waitemata Train Station 4"}]},"geometry":{"type":"Point","coordinates":[174.768893,-36.844505]}},{"type":"Feature","properties":{"STOPNAME":"Hamilton Frankton Train Station","PARENTSTATION":"141-e3c20ef1","MODE":"Train","platforms":[{"id":"9011-cf8cc006","code":"9011","name":"Hamilton Frankton Train Station 1"}]},"geometry":{"type":"Point","coordinates":[175.26538,-37.79121]}},{"type":"Feature","properties":{"STOPNAME":"Hamilton Rotokauri Train Station","PARENTSTATION":"142-1587ee51","MODE":"Train","platforms":[{"id":"9021-9fccfa2b","code":"9021","name":"Hamilton Rotokauri Train Station 1"},{"id":"9022-94c9d774","code":"9022","name":"Hamilton Rotokauri Train Station 2"}]},"geometry":{"type":"Point","coordinates":[175.230145,-37.74904]}},{"type":"Feature","properties":{"STOPNAME":"Huntly Train Station","PARENTSTATION":"143-7bbaa65d","MODE":"Train","platforms":[{"id":"9031-740bc002","code":"9031","name":"Huntly Train Station 1"}]},"geometry":{"type":"Point","coordinates":[175.15971,-37.55787]}},{"type":"Feature","properties":{"STOPNAME":"Newmarket Train Station","PARENTSTATION":"115-96c3c7be","MODE":"Train","platforms":[{"id":"9100-2034265b","code":"9100","name":"Newmarket Train Station 1"},{"id":"9103-0e65d9b8","code":"9103","name":"Newmarket Train Station 2"},{"id":"9104-87b89d4a","code":"9104","name":"Newmarket Train Station 4"}]},"geometry":{"type":"Point","coordinates":[174.77884,-36.86972]}},{"type":"Feature","properties":{"STOPNAME":"Parnell Train Station","PARENTSTATION":"140-4f49e4da","MODE":"Train","platforms":[{"id":"9105-5aefbb78","code":"9105","name":"Parnell Train Station 1"},{"id":"9106-cca709e4","code":"9106","name":"Parnell Train Station 2"}]},"geometry":{"type":"Point","coordinates":[174.77743,-36.85471]}},{"type":"Feature","properties":{"STOPNAME":"Remuera Train Station","PARENTSTATION":"114-c06f0e9c","MODE":"Train","platforms":[{"id":"9200-215e746d","code":"9200","name":"Remuera Train Station 1"},{"id":"9201-2c983f68","code":"9201","name":"Remuera Train Station 2"}]},"geometry":{"type":"Point","coordinates":[174.78543,-36.881375]}},{"type":"Feature","properties":{"STOPNAME":"Greenlane Train Station","PARENTSTATION":"113-5a21d646","MODE":"Train","platforms":[{"id":"9202-76db2801","code":"9202","name":"Greenlane Train Station 1"},{"id":"9203-7e1926ce","code":"9203","name":"Greenlane Train Station 2"}]},"geometry":{"type":"Point","coordinates":[174.797435,-36.889635]}},{"type":"Feature","properties":{"STOPNAME":"Ellerslie Train Station","PARENTSTATION":"112-15fd1147","MODE":"Train","platforms":[{"id":"9204-f48e513f","code":"9204","name":"Ellerslie Train Station 1"},{"id":"9205-388a750f","code":"9205","name":"Ellerslie Train Station 2"}]},"geometry":{"type":"Point","coordinates":[174.80821,-36.89845]}},{"type":"Feature","properties":{"STOPNAME":"Penrose Train Station","PARENTSTATION":"102-a4eddeea","MODE":"Train","platforms":[{"id":"9206-a65e85af","code":"9206","name":"Penrose Train Station 1"},{"id":"9207-4bf0e6fc","code":"9207","name":"Penrose Train Station 2"},{"id":"9500-e8f9ea3c","code":"9500","name":"Penrose Train Station 3"}]},"geometry":{"type":"Point","coordinates":[174.815613,-36.91038]}},{"type":"Feature","properties":{"STOPNAME":"Otahuhu Train Station","PARENTSTATION":"101-9ef61446","MODE":"Train","platforms":[{"id":"9209-8c9ed839","code":"9209","name":"Otahuhu Train Station 3"},{"id":"9210-25fbbf74","code":"9210","name":"Otahuhu Train Station 1"},{"id":"9211-b292c480","code":"9211","name":"Otahuhu Train Station 2"}]},"geometry":{"type":"Point","coordinates":[174.83321,-36.94669]}},{"type":"Feature","properties":{"STOPNAME":"Middlemore Train Station","PARENTSTATION":"109-270a7792","MODE":"Train","platforms":[{"id":"9212-eb593664","code":"9212","name":"Middlemore Train Station 1"},{"id":"9213-2fb297e5","code":"9213","name":"Middlemore Train Station 2"}]},"geometry":{"type":"Point","coordinates":[174.839,-36.963015]}},{"type":"Feature","properties":{"STOPNAME":"Papatoetoe Train Station","PARENTSTATION":"100-56c57897","MODE":"Train","platforms":[{"id":"9214-6ac64c01","code":"9214","name":"Papatoetoe Train Station 1"},{"id":"9215-e1c858e4","code":"9215","name":"Papatoetoe Train Station 2"}]},"geometry":{"type":"Point","coordinates":[174.84933,-36.97763]}},{"type":"Feature","properties":{"STOPNAME":"Puhinui Train Station","PARENTSTATION":"108-5ab242b5","MODE":"Train","platforms":[{"id":"9216-200a650e","code":"9216","name":"Puhinui Train Station 1"},{"id":"9217-28451e3b","code":"9217","name":"Puhinui Train Station 2"}]},"geometry":{"type":"Point","coordinates":[174.85611,-36.98974]}},{"type":"Feature","properties":{"STOPNAME":"Homai Train Station","PARENTSTATION":"99-68379945","MODE":"Train","platforms":[{"id":"9220-8e46eb03","code":"9220","name":"Homai Train Station 1"},{"id":"9221-1f071411","code":"9221","name":"Homai Train Station 2"}]},"geometry":{"type":"Point","coordinates":[174.87467,-37.01346]}},{"type":"Feature","properties":{"STOPNAME":"Manurewa Train Station","PARENTSTATION":"98-0d95d0e0","MODE":"Train","platforms":[{"id":"9222-11619061","code":"9222","name":"Manurewa Train Station 1"},{"id":"9223-b34cb60a","code":"9223","name":"Manurewa Train Station 2"}]},"geometry":{"type":"Point","coordinates":[174.89618,-37.023255]}},{"type":"Feature","properties":{"STOPNAME":"Te Mahia Train Station","PARENTSTATION":"107-90904690","MODE":"Train","platforms":[{"id":"9224-94ced837","code":"9224","name":"Te Mahia Train Station 1"},{"id":"9225-e65a3335","code":"9225","name":"Te Mahia Train Station 2"}]},"geometry":{"type":"Point","coordinates":[174.9061,-37.03117]}},{"type":"Feature","properties":{"STOPNAME":"Takaanini Train Station","PARENTSTATION":"106-67be4ce1","MODE":"Train","platforms":[{"id":"9226-a1e84e0d","code":"9226","name":"Takaanini Train Station 1"},{"id":"9227-c9ab5758","code":"9227","name":"Takaanini Train Station 2"}]},"geometry":{"type":"Point","coordinates":[174.91951,-37.041075]}},{"type":"Feature","properties":{"STOPNAME":"Papakura Train Station","PARENTSTATION":"97-cf37d972","MODE":"Train","platforms":[{"id":"9228-ba7409d9","code":"9228","name":"Papakura Train Station 1"},{"id":"9230-b7b695a0","code":"9230","name":"Papakura Train Station 3"}]},"geometry":{"type":"Point","coordinates":[174.9461,-37.064295]}},{"type":"Feature","properties":{"STOPNAME":"Pukekohe Train Station","PARENTSTATION":"134-b31c4580","MODE":"Train","platforms":[{"id":"9232-aa69f681","code":"9232","name":"Pukekohe Train Station 1"},{"id":"9233-0f5634a3","code":"9233","name":"Pukekohe Train Station 2"},{"id":"9234-44ebb3c5","code":"9234","name":"Pukekohe Train Station 3"},{"id":"9235-c5795c6a","code":"9235","name":"Pukekohe Train Station 4"}]},"geometry":{"type":"Point","coordinates":[174.910395,-37.20341]}},{"type":"Feature","properties":{"STOPNAME":"Paerata Train Station","PARENTSTATION":"146-2dd62c35","MODE":"Train","platforms":[{"id":"9236-1a458359","code":"9236","name":"Paerata Train Station 1"},{"id":"9237-f5d0ce7f","code":"9237","name":"Paerata Train Station 2"}]},"geometry":{"type":"Point","coordinates":[174.89774,-37.15641]}},{"type":"Feature","properties":{"STOPNAME":"The Strand Train Station","PARENTSTATION":"135-b78afdd1","MODE":"Train","platforms":[{"id":"9241-76884964","code":"9241","name":"The Strand Train Station 1"}]},"geometry":{"type":"Point","coordinates":[174.77934,-36.84853]}},{"type":"Feature","properties":{"STOPNAME":"Drury Train Station","PARENTSTATION":"144-3d60114c","MODE":"Train","platforms":[{"id":"9244-180daa8e","code":"9244","name":"Drury Train Station 1"},{"id":"9245-ac09290a","code":"9245","name":"Drury Train Station 2"}]},"geometry":{"type":"Point","coordinates":[174.951605,-37.105015]}},{"type":"Feature","properties":{"STOPNAME":"Maungawhau Train Station","PARENTSTATION":"136-2d5b76e2","MODE":"Train","platforms":[{"id":"9291-5f182165","code":"9291","name":"Maungawhau Train Station 1"},{"id":"9292-d09e2b35","code":"9292","name":"Maungawhau Train Station 2"},{"id":"9293-7c25c9c7","code":"9293","name":"Maungawhau Train Station 3"},{"id":"9294-b72bad92","code":"9294","name":"Maungawhau Train Station 4"}]},"geometry":{"type":"Point","coordinates":[174.758815,-36.86776]}},{"type":"Feature","properties":{"STOPNAME":"Karanga-a-Hape Train Station","PARENTSTATION":"132-c139f454","MODE":"Train","platforms":[{"id":"9295-a6a0f711","code":"9295","name":"Karanga-a-Hape Train Station 1"},{"id":"9296-52e7c2b6","code":"9296","name":"Karanga-a-Hape Train Station 2"}]},"geometry":{"type":"Point","coordinates":[174.75901,-36.858125]}},{"type":"Feature","properties":{"STOPNAME":"Te Waihorotiu Train Station","PARENTSTATION":"131-50330e47","MODE":"Train","platforms":[{"id":"9297-5284e223","code":"9297","name":"Te Waihorotiu Train Station 1"},{"id":"9298-64abb539","code":"9298","name":"Te Waihorotiu Train Station 2"}]},"geometry":{"type":"Point","coordinates":[174.763075,-36.84944]}},{"type":"Feature","properties":{"STOPNAME":"Grafton Train Station","PARENTSTATION":"277-dfb27cf9","MODE":"Train","platforms":[{"id":"9300-9efd20bf","code":"9300","name":"Grafton Train Station 2"},{"id":"9301-113744ac","code":"9301","name":"Grafton Train Station 1"}]},"geometry":{"type":"Point","coordinates":[174.769845,-36.86562]}},{"type":"Feature","properties":{"STOPNAME":"Kingsland Train Station","PARENTSTATION":"122-34ecc043","MODE":"Train","platforms":[{"id":"9304-dcb2ed75","code":"9304","name":"Kingsland Train Station 1"},{"id":"9305-ef07ca76","code":"9305","name":"Kingsland Train Station 2"}]},"geometry":{"type":"Point","coordinates":[174.744535,-36.87251]}},{"type":"Feature","properties":{"STOPNAME":"Morningside Train Station","PARENTSTATION":"104-ff3dff29","MODE":"Train","platforms":[{"id":"9306-949f35aa","code":"9306","name":"Morningside Train Station 1"},{"id":"9307-e1a4b463","code":"9307","name":"Morningside Train Station 2"}]},"geometry":{"type":"Point","coordinates":[174.73522,-36.875]}},{"type":"Feature","properties":{"STOPNAME":"Baldwin Ave Train Station","PARENTSTATION":"119-de6ec4e8","MODE":"Train","platforms":[{"id":"9308-490884bd","code":"9308","name":"Baldwin Ave Train Station 1"},{"id":"9309-e59de511","code":"9309","name":"Baldwin Ave Train Station 2"}]},"geometry":{"type":"Point","coordinates":[174.72046,-36.877685]}},{"type":"Feature","properties":{"STOPNAME":"Mt Albert Train Station","PARENTSTATION":"120-848dea07","MODE":"Train","platforms":[{"id":"9310-5e7a27e9","code":"9310","name":"Mt Albert Train Station 1"},{"id":"9311-a4fe6bf8","code":"9311","name":"Mt Albert Train Station 2"}]},"geometry":{"type":"Point","coordinates":[174.71411,-36.88478]}},{"type":"Feature","properties":{"STOPNAME":"Avondale Train Station","PARENTSTATION":"105-474861ff","MODE":"Train","platforms":[{"id":"9312-e5a780ea","code":"9312","name":"Avondale Train Station 1"},{"id":"9313-4b1bb1e7","code":"9313","name":"Avondale Train Station 2"}]},"geometry":{"type":"Point","coordinates":[174.699125,-36.89714]}},{"type":"Feature","properties":{"STOPNAME":"New Lynn Train Station","PARENTSTATION":"129-f22f268a","MODE":"Train","platforms":[{"id":"9314-15d82116","code":"9314","name":"New Lynn Train Station 1"},{"id":"9315-bf1df522","code":"9315","name":"New Lynn Train Station 2"}]},"geometry":{"type":"Point","coordinates":[174.68405,-36.90938]}},{"type":"Feature","properties":{"STOPNAME":"Fruitvale Train Station","PARENTSTATION":"123-02f15431","MODE":"Train","platforms":[{"id":"9316-2ac0d8cb","code":"9316","name":"Fruitvale Train Station 1"},{"id":"9317-5128fb2f","code":"9317","name":"Fruitvale Train Station 2"}]},"geometry":{"type":"Point","coordinates":[174.667055,-36.91067]}},{"type":"Feature","properties":{"STOPNAME":"Glen Eden Train Station","PARENTSTATION":"124-72ac2d54","MODE":"Train","platforms":[{"id":"9318-c8c09d1b","code":"9318","name":"Glen Eden Train Station 1"},{"id":"9319-5cb53296","code":"9319","name":"Glen Eden Train Station 2"}]},"geometry":{"type":"Point","coordinates":[174.65317,-36.91027]}},{"type":"Feature","properties":{"STOPNAME":"Sunnyvale Train Station","PARENTSTATION":"121-5413495e","MODE":"Train","platforms":[{"id":"9320-36be46d2","code":"9320","name":"Sunnyvale Train Station 1"},{"id":"9321-50b6fd55","code":"9321","name":"Sunnyvale Train Station 2"}]},"geometry":{"type":"Point","coordinates":[174.63193,-36.896865]}},{"type":"Feature","properties":{"STOPNAME":"Henderson Train Station","PARENTSTATION":"125-0874efac","MODE":"Train","platforms":[{"id":"9322-6bc7f9b8","code":"9322","name":"Henderson Train Station 1"},{"id":"9323-cc407567","code":"9323","name":"Henderson Train Station 3"},{"id":"9330-af594dbe","code":"9330","name":"Henderson Train Station 2"}]},"geometry":{"type":"Point","coordinates":[174.630887,-36.881177]}},{"type":"Feature","properties":{"STOPNAME":"Sturges Rd Train Station","PARENTSTATION":"126-c84c70ac","MODE":"Train","platforms":[{"id":"9324-c21175ab","code":"9324","name":"Sturges Rd Train Station 1"},{"id":"9325-6568c76a","code":"9325","name":"Sturges Rd Train Station 2"}]},"geometry":{"type":"Point","coordinates":[174.62081,-36.87349]}},{"type":"Feature","properties":{"STOPNAME":"Ranui Train Station","PARENTSTATION":"128-ae9d93ee","MODE":"Train","platforms":[{"id":"9326-4c79ef6c","code":"9326","name":"Ranui Train Station 1"},{"id":"9327-c03ec883","code":"9327","name":"Ranui Train Station 2"}]},"geometry":{"type":"Point","coordinates":[174.60333,-36.86793]}},{"type":"Feature","properties":{"STOPNAME":"Swanson Train Station","PARENTSTATION":"127-2affe079","MODE":"Train","platforms":[{"id":"9328-f6f84eac","code":"9328","name":"Swanson Train Station 1"},{"id":"9329-e7f6fe12","code":"9329","name":"Swanson Train Station 2"}]},"geometry":{"type":"Point","coordinates":[174.5763,-36.86618]}},{"type":"Feature","properties":{"STOPNAME":"Orakei Train Station","PARENTSTATION":"116-214837ca","MODE":"Train","platforms":[{"id":"9400-7b603e75","code":"9400","name":"Orakei Train Station 1"},{"id":"9401-f4f8af3d","code":"9401","name":"Orakei Train Station 2"}]},"geometry":{"type":"Point","coordinates":[174.809535,-36.86236]}},{"type":"Feature","properties":{"STOPNAME":"Meadowbank Train Station","PARENTSTATION":"117-197f7500","MODE":"Train","platforms":[{"id":"9402-5ba566c5","code":"9402","name":"Meadowbank Train Station 1"},{"id":"9403-fe2811a0","code":"9403","name":"Meadowbank Train Station 2"}]},"geometry":{"type":"Point","coordinates":[174.8208,-36.86629]}},{"type":"Feature","properties":{"STOPNAME":"Glen Innes Train Station","PARENTSTATION":"103-be3d2b7e","MODE":"Train","platforms":[{"id":"9404-50cdc941","code":"9404","name":"Glen Innes Train Station 1"},{"id":"9405-8931d7d6","code":"9405","name":"Glen Innes Train Station 2"}]},"geometry":{"type":"Point","coordinates":[174.85412,-36.8788]}},{"type":"Feature","properties":{"STOPNAME":"Panmure Train Station","PARENTSTATION":"130-782f74ad","MODE":"Train","platforms":[{"id":"9406-ffd612d1","code":"9406","name":"Panmure Train Station 2"},{"id":"9407-ebcb6116","code":"9407","name":"Panmure Train Station 1"}]},"geometry":{"type":"Point","coordinates":[174.84967,-36.89777]}},{"type":"Feature","properties":{"STOPNAME":"Sylvia Park Train Station","PARENTSTATION":"244-2141db40","MODE":"Train","platforms":[{"id":"9408-f63dc486","code":"9408","name":"Sylvia Park Train Station 1"},{"id":"9409-0339c98c","code":"9409","name":"Sylvia Park Train Station 2"}]},"geometry":{"type":"Point","coordinates":[174.8426,-36.91463]}},{"type":"Feature","properties":{"STOPNAME":"Te Papapa Train Station","PARENTSTATION":"606-fecc85f6","MODE":"Train","platforms":[{"id":"9501-ce4fa451","code":"9501","name":"Te Papapa Train Station 1"}]},"geometry":{"type":"Point","coordinates":[174.80137,-36.92013]}},{"type":"Feature","properties":{"STOPNAME":"Onehunga Train Station","PARENTSTATION":"605-b9605c8e","MODE":"Train","platforms":[{"id":"9503-bcf68071","code":"9503","name":"Onehunga Train Station"}]},"geometry":{"type":"Point","coordinates":[174.7868,-36.92539]}},{"type":"Feature","properties":{"STOPNAME":"Manukau Train Station","PARENTSTATION":"9218-cd379d59","MODE":"Train","platforms":[{"id":"9507-9d39710f","code":"9507","name":"Manukau Train Station 1"},{"id":"9508-2ace599e","code":"9508","name":"Manukau Train Station 2"}]},"geometry":{"type":"Point","coordinates":[174.87739,-36.99388]}}]}
