{"type":"FeatureCollection","features":[{"type":"Feature","properties":{"ROUTENUMBER":"HUIA","ROUTENAME":"Hamilton To The Strand Auckland Via Pukekohe","ROUTEPATTERN":"800005","AGENCYNAME":"WRC","MODE":"Train","Shape__Length":138932},"geometry":{"type":"LineString","coordinates":[[175.26538,-37.79121],[175.26535,-37.79122],[175.26277,-37.78898],[175.25715,-37.78502],[175.25177,-37.78046],[175.24994,-37.77909],[175.24921,-37.77838],[175.24835,-37.7771],[175.2466,-37.7739],[175.24327,-37.76761],[175.24132,-37.7644],[175.23917,-37.76062],[175.2384,-37.75897],[175.2366,-37.75626],[175.23479,-37.75378],[175.23312,-37.75198],[175.23192,-37.75061],[175.23005,-37.74902],[175.23006,-37.749],[175.22096,-37.74085],[175.21719,-37.73596],[175.21676,-37.73491],[175.21255,-37.72795],[175.20826,-37.71892],[175.20612,-37.71366],[175.20507,-37.71178],[175.20406,-37.71049],[175.20311,-37.70949],[175.19695,-37.70409],[175.19071,-37.6994],[175.18899,-37.69815],[175.1779,-37.68981],[175.17726,-37.68939],[175.17507,-37.6877],[175.17261,-37.68592],[175.16377,-37.67934],[175.1627,-37.67864],[175.16199,-37.67822],[175.15261,-37.67279],[175.15115,-37.67176],[175.15092,-37.67148],[175.15074,-37.67135],[175.14858,-37.66772],[175.14779,-37.66613],[175.14764,-37.66499],[175.14876,-37.66242],[175.15008,-37.65994],[175.15134,-37.65825],[175.15594,-37.65366],[175.15916,-37.65063],[175.16529,-37.64472],[175.17296,-37.63579],[175.17339,-37.63525],[175.17474,-37.63386],[175.17573,-37.63296],[175.17624,-37.63263],[175.17687,-37.63194],[175.17724,-37.63168],[175.18339,-37.6264],[175.18489,-37.62505],[175.18544,-37.62464],[175.18614,-37.62377],[175.18691,-37.62238],[175.18913,-37.61553],[175.18929,-37.61497],[175.1894,-37.61409],[175.1894,-37.61315],[175.1891,-37.61178],[175.18848,-37.61052],[175.18812,-37.61005],[175.18732,-37.60948],[175.18633,-37.60899],[175.18065,-37.60726],[175.1768,-37.60489],[175.17492,-37.60389],[175.17176,-37.60189],[175.17114,-37.60155],[175.16982,-37.60112],[175.16835,-37.6009],[175.16762,-37.6007],[175.16573,-37.59991],[175.16526,-37.59954],[175.16467,-37.59924],[175.16408,-37.5986],[175.16211,-37.59613],[175.16035,-37.59367],[175.16007,-37.59292],[175.15986,-37.59257],[175.15985,-37.59243],[175.15963,-37.59176],[175.15947,-37.5907],[175.15959,-37.59021],[175.15962,-37.58721],[175.15971,-37.58536],[175.15971,-37.58424],[175.1596,-37.58311],[175.15922,-37.58112],[175.15999,-37.5778],[175.15998,-37.57642],[175.15985,-37.57589],[175.15965,-37.57449],[175.15941,-37.57334],[175.15841,-37.57038],[175.1584,-37.56979],[175.15846,-37.56946],[175.15932,-37.56608],[175.15936,-37.56567],[175.15966,-37.56434],[175.15983,-37.56322],[175.15972,-37.55785],[175.15971,-37.55787],[175.15907,-37.55247],[175.15875,-37.55025],[175.15845,-37.54397],[175.15848,-37.54301],[175.15868,-37.54035],[175.15936,-37.53466],[175.1594,-37.53259],[175.1596,-37.53025],[175.15981,-37.52975],[175.16004,-37.5294],[175.16197,-37.52594],[175.16288,-37.52405],[175.16332,-37.52283],[175.16375,-37.52011],[175.16402,-37.5189],[175.16437,-37.51824],[175.16532,-37.51687],[175.16594,-37.5158],[175.16674,-37.51242],[175.16686,-37.51102],[175.16699,-37.50824],[175.16681,-37.50697],[175.16624,-37.50513],[175.16444,-37.49997],[175.16281,-37.49454],[175.16132,-37.48867],[175.1611,-37.48698],[175.16084,-37.4844],[175.15981,-37.47593],[175.15884,-37.46927],[175.15823,-37.4671],[175.15567,-37.45932],[175.1545,-37.4559],[175.15357,-37.45257],[175.15313,-37.45044],[175.15276,-37.44843],[175.15202,-37.44494],[175.1503,-37.43715],[175.14986,-37.43441],[175.14989,-37.43205],[175.1494,-37.43044],[175.14884,-37.42939],[175.14711,-37.42722],[175.14509,-37.42498],[175.1439,-37.42373],[175.14315,-37.42224],[175.14301,-37.42083],[175.1433,-37.41879],[175.14316,-37.41751],[175.14281,-37.41664],[175.14255,-37.41527],[175.14258,-37.4142],[175.14319,-37.41252],[175.1436,-37.41191],[175.14383,-37.41107],[175.14395,-37.41022],[175.1437,-37.40852],[175.14345,-37.40745],[175.14248,-37.40591],[175.14054,-37.40309],[175.13926,-37.40109],[175.13897,-37.40042],[175.13795,-37.39841],[175.13745,-37.39753],[175.1363,-37.39626],[175.13401,-37.39463],[175.13283,-37.39361],[175.13236,-37.39288],[175.1321,-37.39216],[175.13134,-37.39039],[175.13005,-37.38691],[175.12992,-37.38577],[175.12997,-37.38484],[175.13059,-37.38276],[175.13069,-37.38147],[175.13076,-37.37732],[175.13086,-37.37624],[175.1313,-37.37371],[175.13136,-37.37226],[175.13134,-37.37157],[175.13076,-37.36984],[175.12929,-37.36749],[175.12514,-37.36126],[175.12456,-37.36031],[175.12369,-37.35907],[175.1231,-37.35797],[175.12242,-37.35692],[175.1215,-37.35532],[175.12135,-37.35513],[175.11999,-37.35291],[175.1198,-37.35264],[175.11936,-37.35213],[175.11828,-37.35116],[175.11695,-37.35027],[175.11589,-37.34963],[175.11476,-37.34889],[175.11389,-37.3482],[175.11323,-37.34774],[175.1095,-37.34495],[175.10465,-37.3412],[175.10272,-37.33976],[175.10102,-37.33854],[175.09875,-37.33697],[175.09423,-37.33435],[175.09386,-37.33409],[175.09365,-37.3339],[175.09328,-37.33342],[175.09276,-37.33228],[175.09252,-37.33145],[175.09223,-37.33093],[175.09135,-37.32972],[175.08886,-37.32651],[175.08863,-37.32616],[175.08819,-37.32534],[175.08796,-37.32431],[175.08766,-37.32364],[175.08719,-37.32316],[175.08682,-37.32286],[175.08565,-37.32242],[175.08054,-37.32072],[175.07989,-37.32036],[175.07928,-37.31962],[175.07901,-37.31912],[175.07894,-37.31851],[175.07891,-37.31514],[175.07883,-37.31352],[175.07857,-37.3119],[175.07798,-37.31104],[175.0756,-37.30926],[175.07286,-37.30746],[175.0714,-37.30629],[175.06131,-37.29491],[175.06036,-37.29404],[175.05829,-37.29249],[175.05754,-37.29183],[175.05676,-37.29086],[175.05664,-37.29077],[175.05488,-37.28877],[175.0542,-37.28771],[175.05343,-37.28664],[175.05259,-37.28559],[175.05177,-37.28464],[175.05082,-37.28373],[175.04932,-37.28201],[175.04889,-37.28147],[175.04859,-37.28095],[175.04841,-37.28046],[175.04793,-37.27865],[175.04756,-37.27697],[175.04747,-37.27649],[175.04748,-37.27633],[175.04646,-37.27147],[175.04622,-37.27106],[175.04545,-37.26736],[175.04537,-37.26712],[175.04515,-37.26592],[175.04509,-37.26528],[175.04545,-37.26338],[175.04531,-37.26291],[175.04517,-37.26209],[175.04503,-37.26155],[175.04457,-37.26021],[175.04407,-37.25916],[175.04328,-37.25787],[175.04273,-37.2571],[175.04211,-37.25636],[175.04117,-37.2554],[175.04037,-37.25469],[175.03952,-37.25403],[175.03833,-37.25323],[175.03776,-37.25289],[175.03686,-37.25241],[175.03593,-37.25198],[175.0352,-37.2517],[175.03434,-37.25148],[175.03389,-37.25141],[175.03322,-37.25136],[175.03244,-37.25136],[175.03166,-37.25131],[175.03125,-37.25126],[175.03045,-37.25109],[175.01466,-37.24547],[175.01327,-37.24501],[175.01257,-37.24484],[175.01137,-37.24468],[175.01065,-37.24466],[175.00968,-37.24473],[175.00874,-37.24493],[175.00785,-37.24521],[175.00454,-37.2466],[175.00405,-37.2469],[175.00348,-37.24736],[175.00312,-37.24776],[175.00283,-37.24819],[175.00255,-37.2488],[175.0024,-37.24944],[175.00238,-37.24994],[175.00246,-37.2506],[175.00255,-37.25092],[175.00275,-37.25139],[175.00418,-37.25426],[175.00436,-37.2549],[175.0044,-37.25522],[175.00438,-37.25588],[175.00422,-37.2565],[175.00409,-37.25679],[175.00383,-37.25722],[175.00362,-37.25749],[175.00338,-37.25774],[175.00282,-37.25818],[175.00217,-37.25854],[175.00165,-37.25875],[174.99822,-37.25979],[174.99762,-37.25992],[174.997,-37.26],[174.99638,-37.26002],[174.99444,-37.25985],[174.99362,-37.25986],[174.98602,-37.2602],[174.98342,-37.26035],[174.96992,-37.26092],[174.96694,-37.26121],[174.96226,-37.26149],[174.96084,-37.26155],[174.96033,-37.26154],[174.95956,-37.26148],[174.95473,-37.26074],[174.95432,-37.26064],[174.95354,-37.26036],[174.95298,-37.26009],[174.94768,-37.25678],[174.94701,-37.25644],[174.94627,-37.2562],[174.94549,-37.25606],[174.94393,-37.25599],[174.9433,-37.25592],[174.94249,-37.25572],[174.94174,-37.25543],[174.93838,-37.25354],[174.9337,-37.25044],[174.93317,-37.25004],[174.93268,-37.24959],[174.93214,-37.24893],[174.93182,-37.2484],[174.93164,-37.24803],[174.92981,-37.24301],[174.92942,-37.24224],[174.9283,-37.24055],[174.928,-37.24002],[174.92777,-37.23947],[174.92757,-37.23871],[174.92753,-37.23816],[174.92753,-37.23743],[174.92762,-37.23015],[174.92721,-37.22411],[174.92706,-37.22341],[174.92686,-37.22291],[174.92658,-37.22242],[174.92624,-37.22197],[174.92463,-37.22041],[174.92438,-37.22014],[174.92406,-37.2197],[174.92381,-37.21924],[174.92368,-37.21891],[174.92321,-37.21714],[174.92292,-37.21636],[174.92251,-37.2156],[174.92185,-37.21473],[174.91467,-37.20755],[174.91092,-37.20394],[174.91015,-37.20331],[174.90981,-37.20288],[174.90714,-37.20025],[174.90677,-37.19979],[174.90646,-37.1993],[174.90629,-37.19895],[174.90609,-37.19841],[174.90595,-37.19785],[174.90588,-37.19729],[174.90593,-37.19652],[174.9063,-37.194],[174.90633,-37.19304],[174.9063,-37.19256],[174.90618,-37.1919],[174.90555,-37.1895],[174.90542,-37.18864],[174.90545,-37.18756],[174.90584,-37.18537],[174.90591,-37.18459],[174.9059,-37.18419],[174.90582,-37.18361],[174.9056,-37.18284],[174.90512,-37.18195],[174.90452,-37.18111],[174.90315,-37.17949],[174.90172,-37.17798],[174.9014,-37.17753],[174.90119,-37.17709],[174.90102,-37.17647],[174.90098,-37.17601],[174.90101,-37.17461],[174.90088,-37.17397],[174.90069,-37.17351],[174.90043,-37.17307],[174.89589,-37.16728],[174.89458,-37.16556],[174.8943,-37.16504],[174.894,-37.16413],[174.89391,-37.16338],[174.89394,-37.16264],[174.89404,-37.1621],[174.89415,-37.16175],[174.89437,-37.16123],[174.89466,-37.16073],[174.89519,-37.16],[174.89673,-37.15802],[174.89705,-37.15756],[174.89749,-37.15687],[174.89924,-37.15386],[174.89958,-37.15335],[174.90236,-37.15019],[174.90286,-37.14956],[174.90342,-37.14868],[174.90436,-37.14684],[174.90495,-37.14606],[174.90554,-37.1455],[174.90624,-37.14498],[174.90663,-37.14475],[174.91044,-37.14277],[174.91081,-37.14254],[174.91131,-37.14215],[174.91175,-37.14172],[174.91225,-37.1411],[174.91364,-37.13893],[174.91407,-37.13836],[174.91456,-37.13783],[174.9151,-37.13733],[174.91624,-37.13645],[174.91789,-37.13525],[174.9214,-37.13282],[174.93253,-37.12517],[174.93658,-37.12242],[174.9377,-37.12157],[174.9383,-37.121],[174.93884,-37.12039],[174.94367,-37.11394],[174.94587,-37.11017],[174.94618,-37.10971],[174.94655,-37.10929],[174.94683,-37.10903],[174.95095,-37.10563],[174.95176,-37.10484],[174.95264,-37.10377],[174.95322,-37.10287],[174.95359,-37.10218],[174.9539,-37.10147],[174.95414,-37.10069],[174.95425,-37.10011],[174.95435,-37.09924],[174.95476,-37.09168],[174.95488,-37.09065],[174.95515,-37.08955],[174.95753,-37.08159],[174.95763,-37.08114],[174.95772,-37.08023],[174.95769,-37.07952],[174.95744,-37.07825],[174.95709,-37.07722],[174.95673,-37.07643],[174.9562,-37.07547],[174.95579,-37.07488],[174.95532,-37.07433],[174.95479,-37.07381],[174.95418,-37.07331],[174.9537,-37.07295],[174.95223,-37.07199],[174.95166,-37.07156],[174.95113,-37.07109],[174.95053,-37.07044],[174.95012,-37.0699],[174.94788,-37.06664],[174.94676,-37.06511],[174.94593,-37.06388],[174.94505,-37.06278],[174.94161,-37.05877],[174.93718,-37.05383],[174.93588,-37.05253],[174.93486,-37.05157],[174.93371,-37.05058],[174.93275,-37.04982],[174.93081,-37.04845],[174.92156,-37.04245],[174.91915,-37.04095],[174.91744,-37.03978],[174.91508,-37.03824],[174.91121,-37.03517],[174.90875,-37.0331],[174.90805,-37.03257],[174.90637,-37.03139],[174.90388,-37.02933],[174.89661,-37.02356],[174.89593,-37.02309],[174.89543,-37.0228],[174.89471,-37.02245],[174.88798,-37.01945],[174.88659,-37.01886],[174.88177,-37.01692],[174.8799,-37.01609],[174.8784,-37.01538],[174.8754,-37.01387],[174.87429,-37.01326],[174.87231,-37.01207],[174.86668,-37.00886],[174.86624,-37.00858],[174.86549,-37.00797],[174.86505,-37.0075],[174.86473,-37.00708],[174.86429,-37.0063],[174.86306,-37.00325],[174.86119,-36.99877],[174.86057,-36.99708],[174.85967,-36.99514],[174.85928,-36.99452],[174.85756,-36.99232],[174.85687,-36.99119],[174.85613,-36.98987],[174.85405,-36.98585],[174.85161,-36.98146],[174.85066,-36.97947],[174.84891,-36.97699],[174.84416,-36.97071],[174.84181,-36.96719],[174.84087,-36.96584],[174.83529,-36.95738],[174.83477,-36.95613],[174.83336,-36.94729],[174.83201,-36.93912],[174.8312,-36.93453],[174.83017,-36.93004],[174.83012,-36.9296],[174.83018,-36.92891],[174.83039,-36.9283],[174.83073,-36.9277],[174.83109,-36.92726],[174.83139,-36.927],[174.83203,-36.92655],[174.83289,-36.92607],[174.84069,-36.92191],[174.84175,-36.92106],[174.84224,-36.92053],[174.84274,-36.91977],[174.84311,-36.91884],[174.84321,-36.91839],[174.84327,-36.91743],[174.8431,-36.91637],[174.8425,-36.91437],[174.84176,-36.91156],[174.8415,-36.91036],[174.84149,-36.90968],[174.84168,-36.90861],[174.84323,-36.9042],[174.84361,-36.90339],[174.844,-36.90284],[174.84432,-36.90249],[174.85019,-36.8973],[174.85131,-36.89606],[174.85217,-36.89488],[174.85272,-36.89395],[174.85314,-36.89314],[174.85346,-36.89243],[174.85504,-36.88788],[174.85534,-36.88686],[174.8555,-36.88598],[174.85557,-36.88525],[174.85557,-36.88449],[174.85543,-36.88313],[174.85528,-36.88249],[174.85316,-36.8753],[174.85282,-36.87448],[174.85232,-36.87371],[174.85199,-36.87332],[174.85127,-36.87268],[174.8508,-36.87236],[174.84998,-36.8719],[174.84845,-36.87128],[174.8433,-36.86933],[174.84112,-36.86845],[174.83853,-36.86724],[174.83731,-36.86673],[174.83614,-36.86632],[174.835,-36.86601],[174.8345,-36.86591],[174.83273,-36.86568],[174.82909,-36.86546],[174.82839,-36.86546],[174.8273,-36.86548],[174.82565,-36.8657],[174.82311,-36.86626],[174.82193,-36.86636],[174.82131,-36.86634],[174.82046,-36.86625],[174.81971,-36.86612],[174.81922,-36.86596],[174.81138,-36.86308],[174.80901,-36.86225],[174.80645,-36.86085],[174.8048,-36.85967],[174.79252,-36.8489],[174.79203,-36.84862],[174.79161,-36.84842],[174.79102,-36.84822],[174.79017,-36.84808],[174.78929,-36.84805],[174.77934,-36.84853]]}},{"type":"Feature","properties":{"ROUTENUMBER":"O-W","ROUTENAME":"Onehunga To Henderson 2 Via Newmarket 1","ROUTEPATTERN":"860001","AGENCYNAME":"AM","MODE":"Train","Shape__Length":27294},"geometry":{"type":"MultiLineString","coordinates":[[[174.71414,-36.88479],[174.71411,-36.88478],[174.71384,-36.88505],[174.71307,-36.88565],[174.7079,-36.89054],[174.70696,-36.89149],[174.70611,-36.89206],[174.70512,-36.89279],[174.70186,-36.89419],[174.70063,-36.89454],[174.70037,-36.89464],[174.6998,-36.89498],[174.69944,-36.89533],[174.6993,-36.89555],[174.6992,-36.8958],[174.69916,-36.89597],[174.69916,-36.8962],[174.69921,-36.89656],[174.6991,-36.89669],[174.69912,-36.89714],[174.69915,-36.89714],[174.69919,-36.8982],[174.69916,-36.89871],[174.69853,-36.90052],[174.69806,-36.9027],[174.69755,-36.90392],[174.69732,-36.90433],[174.69646,-36.90558],[174.69627,-36.90592],[174.69555,-36.90695],[174.69525,-36.90724],[174.69484,-36.90749],[174.69465,-36.90756],[174.69395,-36.9077],[174.69136,-36.90764],[174.69044,-36.90766],[174.69001,-36.9077],[174.68913,-36.90785],[174.6886,-36.90796],[174.68689,-36.90846],[174.68033,-36.9106],[174.67986,-36.91069],[174.67954,-36.91072],[174.67834,-36.91066],[174.67772,-36.91073],[174.677,-36.91094],[174.67586,-36.91121],[174.67444,-36.91138],[174.67108,-36.91142],[174.66938,-36.91135],[174.66875,-36.91124],[174.66783,-36.91091],[174.66705,-36.91068]],[[174.63092,-36.88193],[174.63186,-36.89687],[174.63199,-36.89801],[174.63213,-36.8985],[174.63234,-36.89897],[174.63248,-36.8992],[174.63294,-36.89974],[174.63548,-36.90209],[174.63885,-36.90508],[174.63972,-36.9057],[174.64049,-36.90607],[174.64249,-36.90672],[174.64389,-36.90725],[174.64907,-36.90879],[174.65116,-36.90959],[174.65543,-36.91106],[174.65636,-36.91127],[174.65743,-36.91138],[174.65883,-36.91161],[174.66034,-36.91157],[174.66113,-36.91161],[174.66239,-36.91159],[174.66363,-36.91112],[174.66441,-36.91078],[174.66522,-36.91056],[174.66603,-36.9105],[174.66681,-36.9106],[174.66706,-36.91067]],[[174.7868,-36.92539],[174.78694,-36.92527],[174.78741,-36.92505],[174.79482,-36.92442],[174.79573,-36.92424],[174.79631,-36.92406],[174.79667,-36.92391],[174.79702,-36.92371],[174.7975,-36.92335],[174.79944,-36.9216],[174.80027,-36.92089],[174.80219,-36.91956],[174.80949,-36.91466],[174.8104,-36.91409],[174.81417,-36.91248],[174.81441,-36.91232],[174.81474,-36.91208],[174.81519,-36.9116],[174.81537,-36.91106],[174.81541,-36.91098],[174.81547,-36.91098],[174.8155,-36.91089],[174.81554,-36.91069],[174.81554,-36.91043],[174.81542,-36.90994],[174.81524,-36.90958],[174.81476,-36.90887],[174.81432,-36.90835],[174.81413,-36.90815],[174.81162,-36.90618],[174.81114,-36.90553],[174.81098,-36.90525],[174.81068,-36.90457],[174.81023,-36.9028],[174.80984,-36.90181],[174.80813,-36.89848],[174.80821,-36.89845],[174.80815,-36.89845],[174.80793,-36.89801],[174.80777,-36.89782],[174.80706,-36.89633],[174.80644,-36.89558],[174.80592,-36.89508],[174.80528,-36.89455],[174.80388,-36.89354],[174.8026,-36.89278],[174.80244,-36.89271],[174.80084,-36.89174],[174.79926,-36.89069],[174.79743,-36.88963],[174.79741,-36.88965],[174.79442,-36.88787],[174.79176,-36.88652],[174.78961,-36.88513],[174.7888,-36.88454],[174.78724,-36.88314],[174.78542,-36.88138],[174.78527,-36.88119],[174.78344,-36.87937],[174.78075,-36.8764],[174.7801,-36.87553],[174.7795,-36.87449],[174.77918,-36.87367],[174.77886,-36.87246],[174.77867,-36.87108],[174.77867,-36.8706],[174.77883,-36.86972],[174.77933,-36.86788],[174.77936,-36.86757],[174.77932,-36.86739],[174.77923,-36.86721],[174.77902,-36.86697],[174.77885,-36.86685],[174.77817,-36.86652],[174.77745,-36.86627],[174.77308,-36.86527],[174.77259,-36.86518],[174.77226,-36.86515],[174.77176,-36.86516],[174.7714,-36.86521],[174.77008,-36.86556],[174.76929,-36.86583],[174.76757,-36.86628],[174.7652,-36.86698],[174.76433,-36.8673],[174.76254,-36.86817],[174.76218,-36.86831],[174.76169,-36.86839],[174.76117,-36.86837],[174.75876,-36.868],[174.75751,-36.868],[174.75692,-36.86816],[174.75537,-36.86878],[174.75437,-36.8691],[174.7534,-36.86933],[174.75125,-36.86964],[174.75059,-36.86976],[174.75021,-36.86989],[174.74991,-36.87006],[174.74817,-36.87158],[174.74759,-36.87189],[174.74708,-36.87202],[174.74604,-36.8721],[174.74563,-36.87217],[174.74453,-36.87251],[174.74322,-36.873],[174.74245,-36.87349],[174.74219,-36.87361],[174.74056,-36.87394],[174.73842,-36.87403],[174.7381,-36.87406],[174.73732,-36.87422],[174.73523,-36.87501],[174.73369,-36.87565],[174.73073,-36.87643],[174.72944,-36.87661],[174.72571,-36.87665],[174.72405,-36.87694],[174.72066,-36.87763],[174.71978,-36.87792],[174.71917,-36.87825],[174.7187,-36.87856],[174.71832,-36.87889],[174.71687,-36.88046],[174.71647,-36.881],[174.71631,-36.88132],[174.71556,-36.88319],[174.71539,-36.88347],[174.71512,-36.88378],[174.71411,-36.88478]]]}},{"type":"Feature","properties":{"ROUTENUMBER":"S-C","ROUTENAME":"Pukekohe 3 Clockwise To Newmarket 2 Via NKT1, PPK 3","ROUTEPATTERN":"870005","AGENCYNAME":"AM","MODE":"Train","Shape__Length":54716},"geometry":{"type":"LineString","coordinates":[[174.91064,-37.20351],[174.90994,-37.20303],[174.90818,-37.2013],[174.90796,-37.20112],[174.90706,-37.20017],[174.90666,-37.19961],[174.90664,-37.19952],[174.9065,-37.19932],[174.90613,-37.19859],[174.90598,-37.19795],[174.90588,-37.1973],[174.9059,-37.19664],[174.90597,-37.19601],[174.90613,-37.19527],[174.90627,-37.19419],[174.90633,-37.19359],[174.90631,-37.19296],[174.90623,-37.1923],[174.90558,-37.18965],[174.90536,-37.18853],[174.90541,-37.18771],[174.90562,-37.18648],[174.90579,-37.18571],[174.90588,-37.185],[174.90587,-37.1839],[174.90575,-37.18338],[174.90548,-37.18258],[174.90507,-37.18189],[174.90455,-37.18118],[174.90383,-37.18031],[174.90168,-37.17795],[174.90115,-37.17705],[174.90103,-37.17654],[174.90097,-37.17564],[174.90101,-37.17507],[174.901,-37.17452],[174.9008,-37.17377],[174.90041,-37.17308],[174.89873,-37.17089],[174.89662,-37.16822],[174.89545,-37.16667],[174.89434,-37.16512],[174.89414,-37.16459],[174.89398,-37.16391],[174.89391,-37.1632],[174.89398,-37.1624],[174.89414,-37.16179],[174.89433,-37.16133],[174.8946,-37.16085],[174.89562,-37.15944],[174.89692,-37.15774],[174.8975,-37.15678],[174.89768,-37.15639],[174.89924,-37.15389],[174.89979,-37.15309],[174.90161,-37.1511],[174.90316,-37.14917],[174.9033,-37.14894],[174.9041,-37.14729],[174.90442,-37.14673],[174.90502,-37.14598],[174.90528,-37.14571],[174.90577,-37.14529],[174.9069,-37.14461],[174.90741,-37.14432],[174.91016,-37.14292],[174.91131,-37.1421],[174.9118,-37.14163],[174.91241,-37.14081],[174.91355,-37.13904],[174.91409,-37.13829],[174.91447,-37.13786],[174.91607,-37.13655],[174.91792,-37.13521],[174.92041,-37.13347],[174.92192,-37.13249],[174.92355,-37.13127],[174.92544,-37.13005],[174.92664,-37.12918],[174.92836,-37.12804],[174.93051,-37.1265],[174.93538,-37.12323],[174.93717,-37.12192],[174.93829,-37.12094],[174.94063,-37.11797],[174.94343,-37.11426],[174.94425,-37.11298],[174.94478,-37.11207],[174.94494,-37.11173],[174.9464,-37.10948],[174.94689,-37.10894],[174.95056,-37.10601],[174.95107,-37.10554],[174.95131,-37.10536],[174.95151,-37.10513],[174.95154,-37.105],[174.95223,-37.10428],[174.9527,-37.1037],[174.95315,-37.10295],[174.95339,-37.10231],[174.95398,-37.10121],[174.95417,-37.10049],[174.9543,-37.09967],[174.95434,-37.09819],[174.95452,-37.09482],[174.95477,-37.0912],[174.95486,-37.09062],[174.95531,-37.08889],[174.95665,-37.08449],[174.95764,-37.081],[174.95771,-37.08008],[174.95754,-37.07867],[174.95714,-37.07744],[174.95674,-37.0764],[174.95599,-37.07517],[174.95567,-37.07474],[174.95485,-37.0739],[174.95424,-37.07338],[174.95335,-37.07273],[174.95233,-37.07204],[174.95159,-37.07148],[174.95118,-37.07112],[174.95064,-37.07055],[174.9464,-37.06466],[174.94609,-37.0643],[174.94613,-37.06428],[174.94495,-37.06269],[174.94191,-37.05915],[174.93704,-37.05363],[174.93541,-37.05204],[174.9325,-37.04959],[174.93071,-37.04831],[174.92324,-37.04351],[174.91951,-37.04106],[174.91945,-37.04112],[174.91477,-37.03792],[174.91333,-37.03672],[174.90609,-37.03118],[174.89617,-37.02326],[174.8958,-37.02302],[174.89426,-37.02223],[174.89379,-37.02195],[174.8923,-37.02124],[174.89069,-37.02059],[174.88894,-37.01979],[174.88711,-37.01903],[174.88515,-37.0183],[174.88166,-37.01687],[174.87843,-37.0154],[174.87646,-37.01442],[174.87509,-37.0136],[174.87461,-37.01344],[174.87429,-37.01326],[174.87231,-37.01207],[174.86668,-37.00886],[174.86624,-37.00858],[174.86583,-37.00827],[174.86549,-37.00797],[174.86505,-37.0075],[174.86465,-37.00696],[174.86429,-37.0063],[174.86306,-37.00325],[174.86119,-36.99877],[174.86057,-36.99708],[174.85967,-36.99514],[174.85928,-36.99452],[174.85756,-36.99232],[174.85687,-36.99119],[174.85613,-36.98987],[174.85608,-36.98975],[174.85611,-36.98974],[174.85097,-36.97996],[174.84983,-36.97831],[174.84925,-36.97766],[174.83896,-36.96304],[174.83865,-36.9625],[174.83533,-36.95744],[174.83497,-36.95659],[174.83462,-36.95519],[174.83396,-36.95074],[174.83321,-36.94669],[174.83193,-36.93739],[174.83139,-36.93411],[174.83086,-36.93233],[174.83001,-36.92991],[174.82925,-36.92832],[174.82773,-36.92567],[174.82625,-36.92374],[174.82491,-36.92224],[174.82218,-36.91873],[174.81731,-36.91255],[174.81671,-36.91183],[174.81625,-36.91086],[174.81482,-36.90882],[174.81442,-36.90838],[174.81404,-36.90805],[174.81288,-36.90727],[174.81225,-36.90679],[174.81185,-36.90641],[174.81134,-36.90579],[174.81106,-36.90535],[174.81074,-36.90465],[174.81031,-36.90297],[174.80997,-36.90204],[174.8088,-36.89962],[174.80812,-36.89847],[174.80821,-36.89845],[174.80815,-36.89845],[174.80793,-36.89801],[174.80777,-36.89782],[174.80706,-36.89633],[174.80644,-36.89558],[174.80592,-36.89508],[174.80499,-36.89432],[174.80388,-36.89354],[174.8026,-36.89278],[174.80244,-36.89271],[174.80084,-36.89174],[174.79926,-36.89069],[174.79743,-36.88963],[174.79741,-36.88965],[174.79442,-36.88787],[174.79176,-36.88652],[174.79021,-36.88553],[174.7893,-36.88491],[174.7888,-36.88454],[174.78724,-36.88314],[174.78542,-36.88138],[174.78527,-36.88119],[174.78366,-36.8796],[174.78061,-36.87623],[174.77987,-36.87517],[174.7795,-36.87449],[174.77927,-36.87393],[174.779,-36.87307],[174.77886,-36.87246],[174.77867,-36.87108],[174.77866,-36.87072],[174.77883,-36.86972],[174.77933,-36.86788],[174.77936,-36.86757],[174.77932,-36.86739],[174.77923,-36.86721],[174.77902,-36.86697],[174.77885,-36.86685],[174.77797,-36.86644],[174.77729,-36.86623],[174.77289,-36.86523],[174.7724,-36.86516],[174.77191,-36.86515],[174.7714,-36.86521],[174.77082,-36.86535],[174.76987,-36.86562],[174.76934,-36.86582],[174.76648,-36.86658],[174.7654,-36.86691],[174.76385,-36.86748],[174.76259,-36.86807],[174.76225,-36.86817],[174.76201,-36.86821],[174.76147,-36.86822],[174.76084,-36.86807],[174.76066,-36.86798],[174.76033,-36.86773],[174.76004,-36.86739],[174.75985,-36.86693],[174.75983,-36.86641],[174.75996,-36.86599],[174.76038,-36.865],[174.76084,-36.86313],[174.76084,-36.8626],[174.76078,-36.86217],[174.76069,-36.86189],[174.76038,-36.86135],[174.76022,-36.86115],[174.75932,-36.86025],[174.75914,-36.86002],[174.75885,-36.85946],[174.75878,-36.85892],[174.75879,-36.85816],[174.75873,-36.85773],[174.75867,-36.85625],[174.75868,-36.85591],[174.75884,-36.85513],[174.75917,-36.85438],[174.76023,-36.85274],[174.76059,-36.85229],[174.76091,-36.85199],[174.76139,-36.85161],[174.76214,-36.85113],[174.76244,-36.85077],[174.76288,-36.84972],[174.76299,-36.84961],[174.763,-36.84942],[174.76423,-36.84678],[174.76527,-36.84444],[174.76559,-36.84413],[174.76603,-36.84391],[174.76645,-36.84382],[174.76677,-36.84382],[174.76725,-36.84391],[174.76808,-36.84412],[174.76869,-36.84431],[174.76901,-36.84437],[174.77009,-36.84466],[174.77077,-36.84494],[174.77129,-36.8451],[174.77707,-36.84663],[174.77804,-36.84702],[174.77823,-36.84716],[174.77838,-36.84738],[174.77844,-36.84758],[174.77845,-36.84782],[174.77839,-36.84802],[174.77824,-36.84825],[174.77795,-36.84848],[174.7778,-36.84854],[174.77672,-36.84869],[174.77632,-36.8488],[174.77612,-36.8489],[174.77587,-36.84908],[174.77573,-36.84923],[174.77554,-36.8496],[174.77548,-36.84983],[174.7755,-36.85017],[174.77581,-36.85124],[174.77611,-36.85211],[174.77664,-36.85325],[174.77739,-36.85464],[174.77742,-36.85469],[174.77747,-36.8547],[174.78176,-36.86257],[174.78205,-36.86313],[174.78213,-36.86348],[174.78209,-36.86409],[174.78197,-36.86444],[174.78183,-36.86465],[174.78131,-36.86516],[174.78017,-36.86641],[174.77974,-36.86697],[174.77946,-36.86747],[174.77884,-36.86972]]}},{"type":"Feature","properties":{"ROUTENUMBER":"E-W","ROUTENAME":"Swanson 2 To Manukau 2 Via Waitemata 1","ROUTEPATTERN":"880008","AGENCYNAME":"AM","MODE":"Train","Shape__Length":50233},"geometry":{"type":"MultiLineString","coordinates":[[[174.84967,-36.89777],[174.8497,-36.89778],[174.84978,-36.89771],[174.85063,-36.89687],[174.85158,-36.89576],[174.85209,-36.89506],[174.85245,-36.8945],[174.85305,-36.89339],[174.85367,-36.89198],[174.85425,-36.89022],[174.85517,-36.88762],[174.85532,-36.88711],[174.85551,-36.88622],[174.85561,-36.88523],[174.85559,-36.88415],[174.85552,-36.88352],[174.85536,-36.88272],[174.85426,-36.87895],[174.85423,-36.87886],[174.85412,-36.8788],[174.85421,-36.87878],[174.85312,-36.87509],[174.85277,-36.87433],[174.85228,-36.87362],[174.85159,-36.87291],[174.8512,-36.87259],[174.85077,-36.8723],[174.84993,-36.87185],[174.84921,-36.87156],[174.84162,-36.86866],[174.84065,-36.86823],[174.83843,-36.86717],[174.83754,-36.8668],[174.83599,-36.86626],[174.83482,-36.86595],[174.83405,-36.86581],[174.83355,-36.86575],[174.82903,-36.86543],[174.82757,-36.86546],[174.82668,-36.86554],[174.82525,-36.86577],[174.82331,-36.86621],[174.8222,-36.86632],[174.82119,-36.8663],[174.82029,-36.8662],[174.81955,-36.86604],[174.81887,-36.86584],[174.80952,-36.86238],[174.80957,-36.8623],[174.80946,-36.86233],[174.80845,-36.86192],[174.80693,-36.8611],[174.80611,-36.86058],[174.80502,-36.8598],[174.80328,-36.85834],[174.79286,-36.84915],[174.79246,-36.84884],[174.7921,-36.84863],[174.79153,-36.84837],[174.7909,-36.84819],[174.79015,-36.84806],[174.78991,-36.84805],[174.78939,-36.84805],[174.78549,-36.84823],[174.78277,-36.84832],[174.77996,-36.84799],[174.77967,-36.84791],[174.77938,-36.84777],[174.77905,-36.84755],[174.77857,-36.84715],[174.77819,-36.84695],[174.77797,-36.84687],[174.77156,-36.84518],[174.7708,-36.84495],[174.77,-36.84463],[174.7691,-36.84439],[174.76869,-36.84431],[174.76859,-36.84426],[174.76725,-36.84391],[174.7666,-36.84381],[174.76624,-36.84385],[174.76579,-36.84401],[174.76547,-36.84422],[174.76527,-36.84444],[174.76423,-36.84678],[174.763,-36.84942],[174.76299,-36.84961],[174.76288,-36.84972],[174.76244,-36.85077],[174.76214,-36.85113],[174.76139,-36.85161],[174.76091,-36.85199],[174.76059,-36.85229],[174.76023,-36.85274],[174.75917,-36.85438],[174.75884,-36.85513],[174.75868,-36.85591],[174.75867,-36.85625],[174.75873,-36.85773],[174.75879,-36.85816],[174.75878,-36.85899],[174.75886,-36.85946],[174.75902,-36.85983],[174.75921,-36.86012],[174.7602,-36.86113],[174.76049,-36.86152],[174.76068,-36.86186],[174.76084,-36.86257],[174.76084,-36.86313],[174.7601,-36.8662],[174.75994,-36.86654],[174.75969,-36.8668],[174.7593,-36.86704],[174.75838,-36.86746],[174.75833,-36.86746],[174.75535,-36.86869],[174.7542,-36.86909],[174.75347,-36.86928],[174.751,-36.86965],[174.75066,-36.86971],[174.75031,-36.86982],[174.74986,-36.87005],[174.74855,-36.87122],[174.74816,-36.87153],[174.74785,-36.87172],[174.74759,-36.87183],[174.74702,-36.87198],[174.74584,-36.8721],[174.74547,-36.87218],[174.74453,-36.8725],[174.74322,-36.873],[174.74245,-36.87349],[174.74219,-36.87361],[174.74056,-36.87394],[174.73842,-36.87403],[174.7381,-36.87406],[174.73732,-36.87422],[174.73631,-36.87461],[174.73521,-36.87498],[174.73525,-36.87505],[174.73381,-36.87564],[174.73073,-36.87643],[174.72944,-36.87661],[174.72571,-36.87665],[174.72405,-36.87694],[174.72045,-36.87769],[174.72045,-36.87767],[174.71978,-36.87792],[174.71946,-36.87808],[174.7187,-36.87856],[174.71832,-36.87889],[174.71687,-36.88046],[174.71647,-36.881],[174.71631,-36.88132],[174.71556,-36.88319],[174.71539,-36.88347],[174.71512,-36.88378],[174.71408,-36.88477],[174.71411,-36.88478],[174.71384,-36.88505],[174.71307,-36.88565],[174.7079,-36.89054],[174.70696,-36.89149],[174.70611,-36.89206],[174.7053,-36.89267],[174.70512,-36.89279],[174.70186,-36.89419],[174.70063,-36.89454],[174.70037,-36.89464],[174.69989,-36.89492],[174.69966,-36.89509],[174.69936,-36.89544],[174.6992,-36.8958],[174.69916,-36.89597],[174.69916,-36.8962],[174.69921,-36.89656],[174.6991,-36.89669],[174.6991,-36.89714]],[[174.66706,-36.91067],[174.66783,-36.91091],[174.66875,-36.91124],[174.66938,-36.91135],[174.67108,-36.91142],[174.67444,-36.91138],[174.67586,-36.91121],[174.677,-36.91094],[174.67772,-36.91073],[174.67834,-36.91066],[174.67954,-36.91072],[174.67986,-36.91069],[174.68033,-36.9106],[174.68689,-36.90846],[174.6886,-36.90796],[174.68913,-36.90785],[174.69001,-36.9077],[174.69044,-36.90766],[174.69136,-36.90764],[174.69395,-36.9077],[174.69465,-36.90756],[174.69484,-36.90749],[174.69525,-36.90724],[174.69555,-36.90695],[174.69567,-36.90679],[174.69732,-36.90433],[174.69766,-36.9037],[174.69806,-36.9027],[174.69853,-36.90052],[174.69916,-36.89871],[174.69919,-36.8982],[174.69912,-36.89714]],[[174.5763,-36.86618],[174.57625,-36.86643],[174.57634,-36.86617],[174.57637,-36.86617],[174.57915,-36.8667],[174.58597,-36.86755],[174.58721,-36.86768],[174.58814,-36.86772],[174.59123,-36.86773],[174.59597,-36.86735],[174.59704,-36.8673],[174.59821,-36.86731],[174.59894,-36.86735],[174.60011,-36.86747],[174.60303,-36.86791],[174.60331,-36.86795],[174.60333,-36.86793],[174.60356,-36.86799],[174.60556,-36.86829],[174.6072,-36.86852],[174.60844,-36.86865],[174.60904,-36.86865],[174.61059,-36.86856],[174.61124,-36.86869],[174.61249,-36.86908],[174.6136,-36.86967],[174.61401,-36.86994],[174.61544,-36.87119],[174.61621,-36.87182],[174.61653,-36.87199],[174.61763,-36.87241],[174.62058,-36.87342],[174.62082,-36.87346],[174.62249,-36.87407],[174.62259,-36.87414],[174.62287,-36.87425],[174.62309,-36.87427],[174.6268,-36.87553],[174.62759,-36.87591],[174.62839,-36.8764],[174.62904,-36.87705],[174.62962,-36.87778],[174.63056,-36.87918],[174.63079,-36.88019],[174.63084,-36.88096],[174.63091,-36.88096],[174.63087,-36.88183],[174.63091,-36.88242],[174.63112,-36.88347],[174.63121,-36.88463],[174.6313,-36.88676],[174.63167,-36.89292],[174.63169,-36.89394],[174.63174,-36.89452],[174.63186,-36.89523],[174.63193,-36.89686],[174.632,-36.89686],[174.63196,-36.89776],[174.63199,-36.89801],[174.63213,-36.8985],[174.63234,-36.89897],[174.63248,-36.8992],[174.63294,-36.89974],[174.63548,-36.90209],[174.63885,-36.90508],[174.63972,-36.9057],[174.64049,-36.90607],[174.64249,-36.90672],[174.64389,-36.90725],[174.64907,-36.90879],[174.65116,-36.90959],[174.65543,-36.91106],[174.65636,-36.91127],[174.65743,-36.91138],[174.65883,-36.91161],[174.66034,-36.91157],[174.66113,-36.91161],[174.66239,-36.91159],[174.66363,-36.91112],[174.66441,-36.91078],[174.66522,-36.91056],[174.66603,-36.9105],[174.66681,-36.9106],[174.66706,-36.91066]],[[174.8497,-36.89778],[174.84477,-36.90209],[174.84427,-36.90258],[174.84384,-36.90311],[174.84349,-36.90367],[174.84326,-36.90418],[174.84177,-36.90843],[174.84164,-36.90887],[174.84153,-36.90949],[174.84151,-36.90994],[174.84156,-36.91057],[174.84177,-36.91146],[174.84263,-36.91454],[174.84265,-36.91463],[174.84259,-36.91463],[174.84261,-36.91472],[174.84316,-36.91659],[174.84328,-36.91742],[174.84325,-36.91823],[174.84312,-36.91885],[174.84294,-36.91937],[174.84255,-36.92012],[174.84212,-36.9207],[174.84157,-36.92127],[174.84114,-36.92162],[174.84058,-36.922],[174.83245,-36.92632],[174.83171,-36.92675],[174.83116,-36.9272],[174.8308,-36.92761],[174.83043,-36.92821],[174.83022,-36.92877],[174.83013,-36.92932],[174.83015,-36.9299],[174.8311,-36.93363],[174.83131,-36.9352],[174.83204,-36.93921],[174.83291,-36.94453],[174.83323,-36.94667],[174.83321,-36.94669],[174.83342,-36.94793],[174.83364,-36.94895],[174.83462,-36.95548],[174.83476,-36.9561],[174.83498,-36.95675],[174.83542,-36.95758],[174.84399,-36.97046],[174.84803,-36.97587],[174.84937,-36.97759],[174.84941,-36.9776],[174.84983,-36.97831],[174.85092,-36.97988],[174.85611,-36.98974],[174.85614,-36.98973],[174.85618,-36.98979],[174.85729,-36.99186],[174.85795,-36.99281],[174.85944,-36.99471],[174.86067,-36.9968],[174.86102,-36.99704],[174.86144,-36.99719],[174.8619,-36.99725],[174.86319,-36.9973],[174.86448,-36.99725],[174.86648,-36.99708],[174.8685,-36.99689],[174.86952,-36.99674],[174.87109,-36.99641],[174.87173,-36.9962],[174.87254,-36.99585],[174.87318,-36.99551],[174.87399,-36.99514],[174.87454,-36.99492],[174.87725,-36.99404],[174.87739,-36.99388]]]}}]}
